NOAA 20 (JPSS-1)        
1 43013U 17073A   26140.30013441  .00000056  00000+0  47326-4 0  9994
2 43013  98.7764  80.0123 0001269  43.4291 316.6985 14.19505983440516
GOES 17                 
1 43226U 18022A   26140.18586560 -.00000187  00000+0  00000+0 0  9997
2 43226   0.8683  86.0778 0000384 318.2948 170.9006  1.00271330 30148
FENGYUN 2H              
1 43491U 18050A   26140.10971817 -.00000135  00000+0  00000+0 0  9990
2 43491   2.9599  79.3773 0001783 148.8738 128.4517  1.00272076 29151
METOP-C                 
1 43689U 18087A   26140.26494395  .00000063  00000+0  48584-4 0  9990
2 43689  98.6658 200.3764 0000532 148.2038 211.9171 14.21503646390862
GEO-KOMPSAT-2A          
1 43823U 18100A   26139.61096900 -.00000346  00000+0  00000+0 0  9994
2 43823   0.0631  97.0093 0001920 329.5548 158.9388  1.00271191 27348
METEOR-M2 2             
1 44387U 19038A   26140.21637233  .00000451  00000+0  21489-3 0  9993
2 44387  98.9138 127.0914 0002396  91.1804 268.9649 14.24358795357314
ARKTIKA-M 1             
1 47719U 21016A   26139.08335878 -.00000154  00000+0  00000+0 0  9990
2 47719  63.2280  61.8651 7277473 269.7896  14.7864  2.00632267 38203
FENGYUN 3E              
1 49008U 21062A   26140.29676203  .00000049  00000+0  44005-4 0  9999
2 49008  98.7492 144.0162 0002155 133.7736 226.3619 14.19901322252621
GOES 18                 
1 51850U 22021A   26139.99554729  .00000093  00000+0  00000+0 0  9997
2 51850   0.0435 108.7183 0000193  15.5875 334.7487  1.00270562  6314
NOAA 21 (JPSS-2)        
1 54234U 22150A   26140.26357051  .00000025  00000+0  32334-4 0  9995
2 54234  98.7052  79.5232 0000547 298.0909  62.0212 14.19559763182589
METEOSAT-12 (MTG-I1)    
1 54743U 22170C   26140.21475600 -.00000012  00000+0  00000+0 0  9995
2 54743   0.7519  26.1476 0000712 341.5984 307.1112  1.00273178 12699
TIANMU-1 03             
1 55973U 23039A   26140.29830351  .00011093  00000+0  22604-3 0  9990
2 55973  97.5230 313.1957 0003260 171.2979 188.8327 15.46414174176528
TIANMU-1 04             
1 55974U 23039B   26140.29827147  .00011459  00000+0  22890-3 0  9993
2 55974  97.5166 312.3483 0003947 171.4622 188.6695 15.46981207176534
TIANMU-1 05             
1 55975U 23039C   26140.27777730  .00011285  00000+0  23046-3 0  9995
2 55975  97.5212 312.7995 0002506 191.1263 168.9931 15.46346882176504
TIANMU-1 06             
1 55976U 23039D   26140.30003193  .00011321  00000+0  22685-3 0  9994
2 55976  97.5219 313.4308 0002960 186.0328 174.0886 15.46898136176531
FENGYUN 3G              
1 56232U 23055A   26140.25488999  .00018843  00000+0  29856-3 0  9996
2 56232  49.9915 130.1292 0005803  67.4990 292.6591 15.53376610175662
METEOR-M2 3             
1 57166U 23091A   26140.27457787 -.00000016  00000+0  11805-4 0  9996
2 57166  98.6097 195.8211 0002873 243.2237 116.8648 14.24044119150545
TIANMU-1 07             
1 57399U 23101A   26140.23220061  .00004305  00000+0  15341-3 0  9997
2 57399  97.2605 191.5474 0001717 187.8702 172.2512 15.29445292157370
TIANMU-1 08             
1 57400U 23101B   26140.32989882  .00003845  00000+0  13690-3 0  9996
2 57400  97.2593 191.4172 0003486 187.4907 172.6282 15.29532763157380
TIANMU-1 09             
1 57401U 23101C   26140.24823287  .00004308  00000+0  15336-3 0  9998
2 57401  97.2552 190.7680 0001971 205.4401 154.6743 15.29471421157373
TIANMU-1 10             
1 57402U 23101D   26140.28075646  .00004403  00000+0  15682-3 0  9991
2 57402  97.2630 191.8217 0003538 213.5240 146.5777 15.29442259157375
FENGYUN 3F              
1 57490U 23111A   26140.28130803  .00000026  00000+0  32584-4 0  9994
2 57490  98.6841 210.8083 0001366 112.1701 247.9620 14.19933632144903
ARKTIKA-M 2             
1 58584U 23198A   26138.84987002  .00000166  00000+0  00000+0 0  9992
2 58584  63.1901 157.6300 6893056 267.5473  18.8003  2.00594140 17738
TIANMU-1 11             
1 58645U 23205A   26140.33130606  .00003666  00000+0  14229-3 0  9996
2 58645  97.3459 162.3308 0010901 101.8885 258.3577 15.26670811133272
TIANMU-1 12             
1 58646U 23205B   26140.30093456  .00003748  00000+0  14570-3 0  9995
2 58646  97.3448 162.0625 0009168  88.5807 271.6482 15.26625367133255
TIANMU-1 13             
1 58647U 23205C   26140.33047958  .00003851  00000+0  15027-3 0  9998
2 58647  97.3475 162.3599 0008837  72.2139 288.0063 15.26481709133256
TIANMU-1 14             
1 58648U 23205D   26140.31650108  .00003840  00000+0  14961-3 0  9998
2 58648  97.3411 161.5498 0009698  75.8286 284.4030 15.26526530133250
TIANMU-1 19             
1 58660U 23208A   26140.31960622  .00005795  00000+0  19542-3 0  9991
2 58660  97.4478 256.4919 0006119  66.2822 293.9061 15.31098879133069
TIANMU-1 20             
1 58661U 23208B   26140.31376546  .00005705  00000+0  18536-3 0  9991
2 58661  97.4420 257.0925 0008315  70.4073 289.8066 15.32290430133153
TIANMU-1 21             
1 58662U 23208C   26140.27811784  .00007230  00000+0  21844-3 0  9996
2 58662  97.4478 259.6187 0008239  64.7085 295.5011 15.34519554133280
